{
  "norad_id": 43234,
  "name": "O3B FM13",
  "history": [
    {
      "epoch": "2026-03-25T16:44:28.678560",
      "apogee_km": 8071.620240741752,
      "perigee_km": 8060.158039358056,
      "latitude_deg": 0.028783302941192607,
      "longitude_deg": 82.36519839987159,
      "semi_major_axis_km": 14444.026140049904,
      "eccentricity": 0.00039678,
      "inclination_deg": 0.047,
      "raan_deg": 335.8508,
      "arg_perigee_deg": 348.6026,
      "mean_anomaly_deg": 35.5167,
      "mean_motion_rev_day": 5.00115556
    }
  ]
}